#dP2023  3 10 12  0  0.00000000      96 __u+U ITR00 EXT  IAC
## 2252 475200.00000000   900.00000000 60013 0.5000000000000
+  118   C06C07C08C09C10C11C12C13C14C16C19C20C21C22C23C24C25
+        C26C27C28C29C30C32C33C34C35C36C37C38C39C40C41C42C43
+        C44C45C46E01E02E03E04E05E07E08E09E10E11E12E14E15E18
+        E19E21E24E25E26E27E30E31E33E34E36G01G02G03G04G05G06
+        G08G09G10G11G12G13G14G15G16G17G18G19G20G21G22G23G24
+        G25G26G27G28G29G30G31G32J02J03J04R01R02R03R04R05R07
+        R08R09R11R12R13R14R15R16R17R18R19R20R21R22R24R25  0
++         0  0  0  0  0  0  0  0  0  0  0  0  0  0  0  0  0
++         0  0  0  0  0  0  0  0  0  0  0  0  0  0  0  0  0
++         0  0  0  0  0  0  0  0  0  0  0  0  0  0  0  0  0
++         0  0  0  0  0  0  0  0  0  0  0  0  0  0  0  0  0
++         0  0  0  0  0  0  0  0  0  0  0  0  0  0  0  0  0
++         0  0  0  0  0  0  0  0  0  0  0  0  0  0  0  0  0
++         0  0  0  0  0  0  0  0  0  0  0  0  0  0  0  0  0
%c M  cc GPS ccc cccc cccc cccc cccc ccccc ccccc ccccc ccccc
%c cc cc ccc ccc cccc cccc cccc cccc ccccc ccccc ccccc ccccc
%f  0.0000000  0.000000000  0.00000000000  0.000000000000000
%f  0.0000000  0.000000000  0.00000000000  0.000000000000000
%i    0    0    0    0      0      0      0      0         0
%i    0    0    0    0      0      0      0      0         0
/* IAC                                ULTRA-RAPID PREDICTION
/* S/V CLOCKS ARE ALIGNED TO GNSS TIME                      
/* G:C1WC2W R:C1PC2P E:C1XC5X C:C2IC6I J:C1CC2S             
/* PCV:IGS20_2247 OL/AL:FES2004  NONE     YN ORB:CoN CLK:CoN
*  2023 03 11  6 15  0.00000000
PC06  -8278.411580  39941.212163 -10085.498749   -195.261053
PC07  -7086.057156  26575.324109  32007.393085     -3.228049
PC08 -19872.387378  27942.207816 -24647.759625    519.948040
PC09  -3067.918611  41749.737742   -233.738753    894.760738
PC10   1472.880908  29131.389408  30855.676918     -6.515211
PC11  -5731.284122 -27125.315210   3185.341619    699.329244
PC12   5935.112128 -23390.641577 -13977.224893    499.443367
PC13 -13366.237837  28662.493197 -27853.597139    226.757723
PC14 -11685.155238 -17646.877132  18180.768173    575.693417
PC16  -9137.433527  39114.980163 -12087.220175    141.713037
PC19  20390.590730  15574.531743 -10968.869233   -895.570598
PC20   3240.524456  17087.700963 -21811.532943    685.425703
PC21  17285.843945  -8329.863131  20292.222950   -908.850022
PC22  26623.097975   5063.919875   6721.659665   -592.011165
PC23 -22270.002732   2812.443174 -16586.528593   -886.613414
PC24   9275.064050 -21620.032949 -15008.578352   -309.874296
PC25 -10559.134019 -12407.847225 -22668.331247     85.665909
PC26  21105.586245 -18227.180942    -38.053715    -90.184647
PC27 -11049.332263  16710.760800  19398.907426    108.778796
PC28 -16242.133122  -2528.030775  22554.130202     79.618092
PC29  12736.977078  21755.296917 -11967.053393     91.901311
PC30   1015.329592  27213.918245   6019.203212      0.904962
PC32 -17258.019744   8420.513461 -20222.999545   -602.452943
PC33 -20360.690095 -15516.970336  11098.993133   -870.931698
PC34  -1832.619577 -27440.263066  -4834.144046    123.912481
PC35  16489.487735   3122.436323 -22300.694143    666.589345
PC36   9598.420146  13191.632155  22656.735470   -572.438855
PC37 -22105.669048  17004.710613  -1301.346243   -804.966256
PC38 -25707.000669  29042.416216 -16653.819279     64.184670
PC39 -11115.040816  36001.924771 -18654.806555     -2.119156
PC40 -10485.702299  20617.018983  35241.822493    -17.229773
PC41 -26680.693097  -5443.054657  -6032.310162   -708.992519
PC42  -1706.494480 -16866.777837  22210.645990   -793.560054
PC43 -12360.749975 -22375.053543  11217.118733     11.168486
PC44  10653.156613 -16989.790788 -19434.955040     40.557486
PC45  22358.653323  -3239.134659  16359.187197    -70.669315
PC46  -7823.558138  21334.737233  16216.546628    -39.027276
PE01   3957.781010 -17051.618774 -23873.918532    -17.329374
PE02  -3441.939843  17035.853983  23953.483522     25.622870
PE03   5928.532159  24752.187987 -15118.265887   -657.984665
PE04 -19475.515522 -22170.003176  -2319.772982    -75.806955
PE05 -11459.154937  12814.331035 -24090.287573    -87.608545
PE07  21931.647511   6578.487853  18771.206080    -28.975072
PE08  19433.984951  22229.288930   2160.041422    -49.168087
PE09 -21889.329030  -6783.541160 -18723.276351   -864.668658
PE10 -14226.258345  -7480.726397  24851.700845   -518.213029
PE11 -17891.314965   4407.309705  23152.763715   1199.454506
PE12  -8780.533122 -17194.334536  22445.034477   -453.388711
PE14  18300.644609  25072.209705  -2930.248692    164.997383
PE15   8537.121311  17429.264021 -22338.241177     -6.625955
PE18  -8942.100142 -23127.923878  -4909.018173   -297.276512
PE19  -3573.745623 -23896.154812  17111.749005  -3038.039174
PE21  22197.509072 -13149.903575 -14509.636772   -516.817289
PE24 -29240.818199    735.906550  -4659.212124  -1158.606235
PE25 -22467.300357  12998.250636  14236.279552   -601.076190
PE26  16132.617383 -22673.726795 -10094.639141     41.988517
PE27  29304.381395  -1422.766425   3860.541220   -531.866522
PE30  18467.525668  11447.485609  20077.094333  -1307.594958
PE31 -19089.466460 -11016.975726 -19763.201130   -518.223123
PE33   5549.361578 -27961.383315   8008.402190   -449.622342
PE34  -5383.060252  27940.572311  -8158.183008    -34.277195
PE36 -16317.239332  22157.360257  10890.558405    -24.424449
PG01 -14113.721583  21662.272050   4865.502255    203.989419
PG02  10365.968410 -24483.648593  -1703.267569   -615.198926
PG03 -16542.831470  12630.565640 -16554.311637   -351.782967
PG04  -6221.809637  16140.783304 -20114.240330     -9.749443
PG05  26001.339279  -5119.640337   2401.270533   -119.012769
PG06   9481.453928  12619.767782 -21275.419482    580.287036
PG08 -15042.247364   4792.808917  21345.030768   -112.359521
PG09   4184.272696  22295.953897 -13849.615307   -202.937309
PG10 -14609.511590 -11677.874164  19156.387022    -28.061224
PG11  16826.132292  -1441.297774 -20482.438819   -126.890192
PG12  18920.973921 -10906.421135 -15329.041419   -350.086718
PG13  17185.390718   3854.145970  19766.446797    488.675098
PG14  11431.674545  13588.789041  19796.081108     -7.052533
PG15  14400.548431  -7114.516860  20732.949981     20.520793
PG16 -26810.081218     -5.236220     78.737105   -516.067220
PG17  12713.320428  23214.647087   1819.807464    704.808173
PG18   2830.323899 -23661.939894  11577.074218   -174.629673
PG19  17120.251648  18555.597641  -8917.862239    288.464449
PG20  25091.890309   -270.441867  -8352.666588    445.755475
PG21 -16190.297154  15522.366778  14113.628466    154.309291
PG22 -18030.659938 -16086.344458 -10771.603467    442.954182
PG23  -1634.837761 -14875.160882  21947.183455     10.002113
PG24  14528.490010 -19768.612843   9275.039495   -106.934907
PG25   8437.943822 -15277.394917 -20260.352494    426.734921
PG26 -22919.727006  -5857.452601 -12523.862060    241.937585
PG27 -19196.659483  -7093.147182  16914.097955     83.737362
PG28  -9207.290917 -14501.104445 -20289.384535     39.705993
PG29    424.934799 -20935.332044 -16339.792954   -590.265233
PG30   5007.428970  19333.218634  17480.846338   -527.364685
PG31 -12240.237256  -9737.392072 -21603.695644   -211.308212
PG32 -15974.399909 -21330.109983   -924.856604   -420.035051
PJ02 -31205.149782  24004.423595  20135.641328     -1.154518
PJ03 -28458.258471  26202.683228  21840.997421      0.848235
PJ04 -28274.507947  20127.594325 -18813.126156     94.164127
PR01  22635.789909   8166.272375   8488.388599     24.535913
PR02  12881.014797  -4034.521042  21678.177779    -23.161229
PR03  -3713.074684 -13889.568124  21135.594709     73.955863
PR04 -17859.316591 -15840.655366   9039.070899    178.924102
PR05 -22347.735167  -9346.225813  -8015.863634    109.100946
PR07   4444.152740  14111.621125 -20720.476073     51.495766
PR08  18071.836589  15700.756675  -8701.616138    -69.818784
PR09 -20947.217124  14143.987895   3141.977748    108.488966
PR11   6911.384838   8613.308152  22999.480993    -16.475176
PR12  20896.465545  -4025.074110  14068.408410     25.573793
PR13  21725.458672 -13295.979192  -1350.983067    -32.849764
PR14   9242.209304 -15391.041318 -18122.512297     24.412709
PR15  -7971.946320  -8109.379416 -22820.241205     90.542978
PR16 -20665.734525   4048.668123 -14370.295863     12.221439
PR17   1894.140645 -25258.445387  -2869.333842    611.621419
PR18  -5322.424185 -21092.459605  13385.464657     70.862045
PR19  -9486.637788  -7689.866963  22395.823081   -224.853157
PR20  -9268.160178  14498.028501  18817.280882    -89.141629
PR21  -1278.492991  25460.095841   1148.708088   -379.445538
PR22   5165.270096  20691.394404 -13953.809677     74.405784
PR24   8998.224046 -15405.636626 -18211.230462    152.827024
PR25  -3256.008366  25112.470430   3141.139140     57.403870
EOF
